#dP2024  3 28  0  0  0.00000000      97 __u+U IGS20 FIT  IAC
## 2307 345600.00000000   900.00000000 60397 0.0000000000000
+   23   R01R02R03R04R05R07R08R09R11R12R13R14R15R16R17R18R19
+        R20R21R22R24R25R26  0  0  0  0  0  0  0  0  0  0  0
+          0  0  0  0  0  0  0  0  0  0  0  0  0  0  0  0  0
+          0  0  0  0  0  0  0  0  0  0  0  0  0  0  0  0  0
+          0  0  0  0  0  0  0  0  0  0  0  0  0  0  0  0  0
++         8  7  7  7  7  7  7  6  7  7  8  6  6  6  6  6  8
++         8  7  6  6  8  8  0  0  0  0  0  0  0  0  0  0  0
++         0  0  0  0  0  0  0  0  0  0  0  0  0  0  0  0  0
++         0  0  0  0  0  0  0  0  0  0  0  0  0  0  0  0  0
++         0  0  0  0  0  0  0  0  0  0  0  0  0  0  0  0  0
%c R  cc GPS ccc cccc cccc cccc cccc ccccc ccccc ccccc ccccc
%c cc cc ccc ccc cccc cccc cccc cccc ccccc ccccc ccccc ccccc
%f  1.2500000  1.025000000  0.00000000000  0.000000000000000
%f  0.0000000  0.000000000  0.00000000000  0.000000000000000
%i    0    0    0    0      0      0      0      0         0
%i    0    0    0    0      0      0      0      0         0
/* INFORMATION & ANALYSIS CENTER (IAC)            FINAL DATA
/* S/V CLOCKS ARE ALIGNED TO GNSS TIME                      
/* G:C1WC2W R:C1PC2P E:C1XC5X C:C2IC6I J:C1CC2S             
/* PCV:IGS20_2290 OL/AL:FES2004  NONE     YN ORB:CoN CLK:CoN
*  2024 03 28 16 30  0.00000000
PR01 -22493.389553 -11746.781862  -2672.336595     80.915040
PR02 -20920.638509  -3145.353255  14254.842169    -22.648119
PR03  -7827.150702   8146.447188  22918.439734     97.200052
PR04   9124.612439  14470.078131  18961.791200    229.563810
PR05  21229.972617  13324.385623   4812.164178    129.111141
PR07   7056.735296  -8529.183365 -22936.139161     78.971290
PR08  -9458.795626 -14482.538751 -18667.526755    -74.904259
PR09  21575.980451  -9640.864617  -9480.122907    177.887416
PR11   5073.622521 -14988.949291  20007.837838     29.758424
PR12 -12983.129010  -3749.712491  21651.634482     38.334060
PR13 -21231.907734   7849.317719  11737.764883    -45.737320
PR14 -17722.663623  16686.151771  -7651.110026     26.281514
PR15  -3693.863032  14477.127148 -20661.196846     80.972867
PR16  12691.867024   3767.544060 -21790.916031     24.362875
PR17  -5399.558168  20350.204849 -14371.370818     73.011386
PR18   1832.256620  25432.754324   1444.776373    134.391588
PR19   7156.913499  19065.989477  15360.271280   -271.041194
PR20  10317.517686  -2217.495493  23225.809409   -110.472822
PR21   5479.978236 -20388.676913  14326.875689    -88.189562
PR22  -1668.160180 -25319.055334  -2501.029690    114.822477
PR24 -10626.707206   3353.286841 -22930.764830    -49.586463
PR25   6336.921118 -20284.382952  14124.060441    -25.586449
PR26  -8532.899432 -14264.394497 -19332.219986    -27.884118
*  2024 03 28 16 45  0.00000000
PR01 -22064.260337 -11412.523427  -5825.946229     80.915853
PR02 -22418.216915  -3692.817877  11582.253112    -22.648700
PR03 -10367.618408   7026.342395  22265.426090     97.200162
PR04   6955.247467  13358.190680  20626.485022    229.565243
PR05  20594.009887  12836.881029   7911.723358    129.111490
PR07   9624.395511  -7389.736269 -22396.498675     78.971634
PR08  -7286.294345 -13402.703869 -20367.517633    -74.903939
PR09  20460.163938  -8882.662839 -12283.311546    177.889704
PR11   6925.371833 -16451.060799  18222.189280     29.757059
PR12 -10758.956347  -5317.058155  22527.160910     38.334460
PR13 -19872.275185   6973.445729  14372.106648    -45.737046
PR14 -18261.975340  17226.210601  -4570.411056     26.282274
PR15  -5643.631668  15967.856011 -19062.122986     80.972415
PR16  10455.831074   5357.427504 -22632.077452     24.363267
PR17  -5433.318896  18420.005823 -16764.777267     73.014537
PR18   2041.808760  25393.085988  -1791.526741    134.393052
PR19   7419.553353  20794.650021  12776.182588   -271.042804
PR20  10451.323804    651.602066  23266.603633   -110.474124
PR21   5485.566830 -18463.980078  16730.584245    -88.192305
PR22  -1824.401611 -25424.617203    711.877962    114.823407
PR24 -10874.537353    522.694814 -23054.095781    -49.587997
PR25   6318.318913 -18391.233146  16520.218399    -25.589356
PR26  -6294.737126 -13175.096441 -20895.999054    -27.882038
*  2024 03 28 17  0  0.00000000
PR01 -21251.285786 -10987.179098  -8866.467164     80.916267
PR02 -23632.455829  -4006.053821   8684.524921    -22.648842
PR03 -12884.321326   6132.824544  21181.940858     97.201158
PR04   4541.457657  12346.180544  21892.063879    229.566501
PR05  19577.128827  12264.008685  10857.880812    129.113356
PR07  12180.571453  -6474.536352 -21420.089391     78.973350
PR08  -4866.863442 -12419.820887 -21669.106428    -74.903622
PR09  19151.371197  -7829.648010 -14846.647717    177.891813
PR11   8481.693155 -17887.991574  16082.608186     29.757296
PR12  -8591.972428  -7092.689704  22966.050852     38.335052
PR13 -18345.674942   5802.076466  16726.909773    -45.737240
PR14 -18467.919549  17554.632118  -1401.017115     26.281853
PR15  -7312.146497  17454.219922 -17092.418207     80.972204
PR16   8283.948670   7155.788076 -23033.297264     24.363706
PR17  -5655.590017  16226.990460 -18831.968471     73.017939
PR18   2188.637648  24947.006074  -4993.145206    134.394799
PR19   7773.673506  22167.809233   9943.935614   -271.043331
PR20  10801.422210   3479.041421  22855.913385   -110.476469
PR21   5678.639383 -16272.895780  18809.523262    -88.195201
PR22  -1940.315836 -25126.623448   3910.946836    114.824556
PR24 -11326.957529  -2269.802984 -22729.065275    -49.589513
PR25   6470.693364 -16228.655919  18595.802555    -25.591845
PR26  -3825.028304 -12195.213234 -22053.197261    -27.880589
*  2024 03 28 17 15  0.00000000
PR01 -20058.465121 -10527.352027 -11734.857862     80.917183
PR02 -24516.048344  -4120.590276   5617.823858    -22.649107
PR03 -15309.014855   5471.648573  19688.623128     97.201974
PR04   1935.657413  11478.021367  22734.101572    229.567770
PR05  18187.380428  11664.015544  13593.553970    129.113799
PR07  14656.483356  -5791.560476 -20026.193445     78.973730
PR08  -2253.103858 -11577.884307 -22546.783664    -74.903561
PR09  17708.773934  -6476.444331 -17120.162097    177.894462
PR11   9726.343610 -19237.996279  13630.579832     29.756744
PR12  -6539.813963  -9038.503801  22959.874262     38.335004
PR13 -16714.076842   4335.094619  18756.335561    -45.736356
PR14 -18368.327642  17624.499671   1795.561689     26.282899
PR15  -8678.692500  18875.389474 -14790.423199     80.971567
PR16   6234.008265   9123.170944 -22986.910552     24.364523
PR17  -6093.628039  13831.090474 -20532.798605     73.020765
PR18   2218.308748  24112.948843  -8098.073219    134.396400
PR19   8165.258020  23156.198241   6918.543991   -271.043798
PR20  11352.510892   6194.650629  22001.881733   -110.478220
PR21   6087.358967 -13875.047964  20523.298843    -88.198521
PR22  -1962.003212 -24438.624680   7033.996802    114.825638
PR24 -11967.633757  -4956.025665 -21962.032186    -49.591368
PR25   6823.398124 -13853.764217  20310.528833    -25.594395
PR26  -1178.360063 -11366.394528 -22781.165513    -27.878935
*  2024 03 28 17 30  0.00000000
PR01 -18502.934401 -10088.779893 -14375.403553     80.918257
PR02 -25031.919295  -4080.513971   2441.719861    -22.649088
PR03 -17574.801017   5036.199578  17814.047920     97.202329
PR04   -801.714142  10788.077803  23136.335372    229.569023
PR05  16445.984491  11093.622656  16065.754244    129.114580
PR07  16984.420113  -5336.270649 -18242.226276     78.974326
PR08    494.241489 -10911.318968 -22983.385736    -74.903056
PR09  16193.488709  -4830.156747 -19059.603073    177.896673
PR11  10655.905908 -20439.343659  10913.681648     29.756014
PR12  -4652.719441 -11106.740019  22508.803758     38.335676
PR13 -15040.241413   2585.076879  20420.874612    -45.736087
PR14 -18001.275238  17397.137100   4957.302999     26.283299
PR15  -9735.198354  20169.645390 -12200.932689     80.971331
PR16   4356.106406  11210.490912 -22493.952603     24.365037
PR17  -6763.155631  11298.129966 -21834.276077     73.023773
PR18   2081.407545  22922.009997 -11046.140043    134.397848
PR19   8536.742546  23743.712508   3758.772594   -271.045711
PR20  12077.321516   8732.784560  20721.226678   -110.478275
PR21   6728.384588 -11336.141969  21838.593543    -88.200771
PR22  -1839.613057 -23386.907729  10020.375567    114.826901
PR24 -12768.716729  -7472.318938 -20767.954954    -49.592408
PR25   7394.828802 -11330.017514  21631.106337    -25.596491
PR26   1583.140475 -10720.342874 -23065.611391    -27.876967
*  2024 03 28 17 45  0.00000000
PR01 -16614.429802  -9723.799802 -16736.799075     80.919139
PR02 -25154.805295  -3936.362121   -781.971712    -22.649284
PR03 -19618.734944   4807.934683  15594.205559     97.203715
PR04  -3604.448336  10299.685287  23090.973822    229.570718
PR05  14386.638631  10605.482584  18226.604977    129.114852
PR07  19100.389252  -5092.002770 -16103.178939     78.975352
PR08   3308.589736 -10443.528216 -22970.436308    -74.903068
PR09  14665.993553  -2910.332996 -20627.302491    177.899359
PR11  11279.672205 -21432.934988   7984.663422     29.754634
PR12  -2971.627392 -13241.794043  21621.607311     38.336135
PR13 -13385.113651    577.032862  21688.120082    -45.736060
PR14 -17413.301271  16843.920530   8022.873683     26.282935
PR15 -10486.303453  21276.981232  -9374.319751     80.970466
PR16   2690.748512  13360.913342 -21564.128540     24.365379
PR17  -7667.520909   8697.247268 -22711.199590     73.026808
PR18   1735.868483  21416.675082 -13780.169439    134.399276
PR19   8829.652364  23927.949528    525.995127   -271.046365
PR20  12937.791082  11034.803680  19038.907396   -110.478976
PR21   7605.986170  -8725.402433  22729.814475    -88.203207
PR22  -1529.697996 -22009.396196  12812.137566    114.828017
PR24 -13692.018545  -9761.958223 -19170.097239    -49.593628
PR25   8191.470984  -8724.761590  22531.881581    -25.599504
PR26   4392.146776 -10277.491572 -22900.887734    -27.875046
EOF
